
# Worst residual: 63.95 km
# MJD 59536.000000 (2021 Nov 18  0:00)
A10F6Vd = A10F6Vc = A10ExeQ = A10Evux
1 79995U 22999ZZV 21322.49919926  .00000000  00000-0  00000-0 0 14962
2 79995 038.4481 331.9217 5435086 306.3042 208.0019 01.00042311    06

# Worst residual: 63.89 km
# MJD 59537.000000 (2021 Nov 19  0:00)
A10F6Vd = A10F6Vc = A10ExeQ = A10Evux
1 79995U 22999ZZV 21323.49919926  .00000000  00000-0  00000-0 0 14963
2 79995 038.4921 331.7987 5469124 306.7692 207.9806 01.00039863    02

# Worst residual: 63.81 km
# MJD 59538.000000 (2021 Nov 20  0:00)
A10F6Vd = A10F6Vc = A10ExeQ = A10Evux
1 79995U 22999ZZV 21324.49919926  .00000000  00000-0  00000-0 0 14964
2 79995 038.5358 331.6787 5502377 307.2399 207.9457 01.00036388    03

# Worst residual: 63.75 km
# MJD 59539.000000 (2021 Nov 21  0:00)
A10F6Vd = A10F6Vc = A10ExeQ = A10Evux
1 79995U 22999ZZV 21325.49919926  .00000000  00000-0  00000-0 0 14965
2 79995 038.5831 331.5520 5535865 307.7094 207.9171 01.00033744    04

# Worst residual: 63.51 km
# MJD 59540.000000 (2021 Nov 22  0:00)
A10F6Vd = A10F6Vc = A10ExeQ = A10Evux
1 79995U 22999ZZV 21326.49919926  .00000000  00000-0  00000-0 0 14966
2 79995 038.6299 331.4293 5568420 308.1843 207.8746 01.00030662    02

# Worst residual: 62.71 km
# MJD 59541.000000 (2021 Nov 23  0:00)
A10F6Vd = A10F6Vc = A10ExeQ = A10Evux
1 79995U 22999ZZV 21327.49919926  .00000000  00000-0  00000-0 0 14967
2 79995 038.6779 331.3059 5600215 308.6647 207.8203 01.00029899    08

# Worst residual: 62.08 km
# MJD 59542.000000 (2021 Nov 24  0:00)
A10F6Vd = A10F6Vc = A10ExeQ = A10Evux
1 79995U 22999ZZV 21328.49919926  .00000000  00000-0  00000-0 0 14968
2 79995 038.7243 331.1896 5631589 309.1384 207.7680 01.00027651    06

# Worst residual: 61.36 km
# MJD 59543.000000 (2021 Nov 25  0:00)
A10F6Vd = A10F6Vc = A10ExeQ = A10Evux
1 79995U 22999ZZV 21329.49919926  .00000000  00000-0  00000-0 0 14969
2 79995 038.7739 331.0700 5662211 309.6189 207.7115 01.00025646    08

# Worst residual: 60.07 km
# MJD 59544.000000 (2021 Nov 26  0:00)
A10F6Vd = A10F6Vc = A10ExeQ = A10Evux
1 79995U 22999ZZV 21330.49919926  .00000000  00000-0  00000-0 0 14961
2 79995 038.8272 330.9409 5692598 310.0990 207.6590 01.00025153    01

# Worst residual: 61.38 km
# MJD 59545.000000 (2021 Nov 27  0:00)
A10F6Vd = A10F6Vc = A10ExeQ = A10Evux
1 79995U 22999ZZV 21331.49919926  .00000000  00000-0  00000-0 0 14962
2 79995 038.8690 330.8287 5722099 310.5688 207.6024 01.00023041    03

# Worst residual: 60.05 km
# MJD 59546.000000 (2021 Nov 28  0:00)
A10F6Vd = A10F6Vc = A10ExeQ = A10Evux
1 79995U 22999ZZV 21332.49919926  .00000000  00000-0  00000-0 0 14963
2 79995 038.9184 330.7080 5751715 311.0484 207.5383 01.00026116    02

# Worst residual: 60.75 km
# MJD 59547.000000 (2021 Nov 29  0:00)
A10F6Vd = A10F6Vc = A10ExeQ = A10Evux
1 79995U 22999ZZV 21333.49919926  .00000000  00000-0  00000-0 0 14964
2 79995 038.9702 330.5894 5780117 311.5219 207.4807 01.00018928    00

# Worst residual: 59.10 km
# MJD 59548.000000 (2021 Nov 30  0:00)
A10F6Vd = A10F6Vc = A10ExeQ = A10Evux
1 79995U 22999ZZV 21334.49919926  .00000000  00000-0  00000-0 0 14965
2 79995 039.0169 330.4740 5809386 312.0004 207.4071 01.00022981    03

# Worst residual: 60.34 km
# MJD 59549.000000 (2021 Dec  1  0:00)
A10F6Vd = A10F6Vc = A10ExeQ = A10Evux
1 79995U 22999ZZV 21335.49919926  .00000000  00000-0  00000-0 0 14966
2 79995 039.0667 330.3500 5837555 312.4833 207.3394 01.00018429    01

# Worst residual: 60.62 km
# MJD 59550.000000 (2021 Dec  2  0:00)
A10F6Vd = A10F6Vc = A10ExeQ = A10Evux
1 79995U 22999ZZV 21336.49919926  .00000000  00000-0  00000-0 0 14967
2 79995 039.1183 330.2382 5865142 312.9559 207.2615 01.00014916    07

# Worst residual: 60.13 km
# MJD 59551.000000 (2021 Dec  3  0:00)
A10F6Vd = A10F6Vc = A10ExeQ = A10Evux
1 79995U 22999ZZV 21337.49919926  .00000000  00000-0  00000-0 0 14968
2 79995 039.1696 330.1225 5892553 313.4384 207.1762 01.00012143    01

# Worst residual: 59.47 km
# MJD 59552.000000 (2021 Dec  4  0:00)
A10F6Vd = A10F6Vc = A10ExeQ = A10Evux
1 79995U 22999ZZV 21338.49919926  .00000000  00000-0  00000-0 0 14969
2 79995 039.2211 330.0083 5919399 313.9222 207.0860 01.00009668    06

# Worst residual: 58.75 km
# MJD 59553.000000 (2021 Dec  5  0:00)
A10F6Vd = A10F6Vc = A10ExeQ = A10Evux
1 79995U 22999ZZV 21339.49919926  .00000000  00000-0  00000-0 0 14960
2 79995 039.2726 329.8954 5945646 314.4061 206.9928 01.00007806    06

# Worst residual: 58.13 km
# MJD 59554.000000 (2021 Dec  6  0:00)
A10F6Vd = A10F6Vc = A10ExeQ = A10Evux
1 79995U 22999ZZV 21340.49919926  .00000000  00000-0  00000-0 0 14962
2 79995 039.3242 329.7838 5971322 314.8892 206.8987 01.00006575    02

# Worst residual: 57.43 km
# MJD 59555.000000 (2021 Dec  7  0:00)
A10F6Vd = A10F6Vc = A10ExeQ = A10Evux
1 79995U 22999ZZV 21341.49919926  .00000000  00000-0  00000-0 0 14963
2 79995 039.3763 329.6746 5996534 315.3713 206.8013 01.00008038    03

# Worst residual: 56.97 km
# MJD 59556.000000 (2021 Dec  8  0:00)
A10F6Vd = A10F6Vc = A10ExeQ = A10Evux
1 79995U 22999ZZV 21342.49919926  .00000000  00000-0  00000-0 0 14964
2 79995 039.4310 329.5621 6021043 315.8502 206.7143 01.00001210    07

# Worst residual: 55.97 km
# MJD 59557.000000 (2021 Dec  9  0:00)
A10F6Vd = A10F6Vc = A10ExeQ = A10Evux
1 79995U 22999ZZV 21343.49919926  .00000000  00000-0  00000-0 0 14965
2 79995 039.4819 329.4534 6045763 316.3352 206.6107 01.00007564    04

# Worst residual: 56.06 km
# MJD 59558.000000 (2021 Dec 10  0:00)
A10F6Vd = A10F6Vc = A10ExeQ = A10Evux
1 79995U 22999ZZV 21344.49919926  .00000000  00000-0  00000-0 0 14966
2 79995 039.5366 329.3418 6069313 316.8181 206.5145 01.00004755    04

# Worst residual: 55.87 km
# MJD 59559.000000 (2021 Dec 11  0:00)
A10F6Vd = A10F6Vc = A10ExeQ = A10Evux
1 79995U 22999ZZV 21345.49919926  .00000000  00000-0  00000-0 0 14967
2 79995 039.5837 329.2418 6092909 317.2937 206.4212 01.00000124    07

# Worst residual: 56.04 km
# MJD 59560.000000 (2021 Dec 12  0:00)
A10F6Vd = A10F6Vc = A10ExeQ = A10Evux
1 79995U 22999ZZV 21346.49919926  .00000000  00000-0  00000-0 0 14968
2 79995 039.6372 329.1355 6115797 317.7718 206.3229 01.00001509    09

# Worst residual: 54.52 km
# MJD 59561.000000 (2021 Dec 13  0:00)
A10F6Vd = A10F6Vc = A10ExeQ = A10Evux
1 79995U 22999ZZV 21347.49919926  .00000000  00000-0  00000-0 0 14969
2 79995 039.6880 329.0346 6138253 318.2506 206.2184 01.00002610    08

# Worst residual: 54.01 km
# MJD 59562.000000 (2021 Dec 14  0:00)
A10F6Vd = A10F6Vc = A10ExeQ = A10Evux
1 79995U 22999ZZV 21348.49919926  .00000000  00000-0  00000-0 0 14960
2 79995 039.7447 328.9288 6160361 318.7259 206.1255 01.00002704    08
